{
  "type": "FeatureCollection",
  "features": [
    {
      "type": "Feature",
      "properties": {
        "norad_id": 57400,
        "name": "TIANMU-1 08",
        "group": "weather",
        "lat": -9.411284661826429,
        "lon": 40.949393447192634,
        "alt_km": 485.1037741465425,
        "timestamp": "2025-12-16T03:53:26.701569+00:00",
        "meta_object_name": "TIANMU-1 08",
        "meta_object_id": "2023-101B",
        "meta_epoch": "2025-12-15T09:04:23.038752",
        "meta_mean_motion": 15.28096088,
        "meta_eccentricity": 0.00074595,
        "meta_inclination": 97.2869,
        "meta_ra_of_asc_node": 38.9673,
        "meta_arg_of_pericenter": 76.5418,
        "meta_mean_anomaly": 283.6653,
        "meta_ephemeris_type": 0,
        "meta_classification_type": "U",
        "meta_norad_cat_id": 57400,
        "meta_element_set_no": 999,
        "meta_rev_at_epoch": 13355,
        "meta_bstar": 0.00020436108,
        "meta_mean_motion_dot": 5.529e-05,
        "meta_mean_motion_ddot": 0,
        "tle_line1": "1 57400U 23101B   25349.37804443  .00005529  00000+0  20436-3 0  9997",
        "tle_line2": "2 57400  97.2869  38.9673 0007459  76.5418 283.6653 15.28096088133558"
      },
      "geometry": {
        "type": "Point",
        "coordinates": [
          40.949393447192634,
          -9.411284661826429
        ]
      }
    },
    {
      "type": "Feature",
      "properties": {
        "norad_id": 57401,
        "name": "TIANMU-1 09",
        "group": "weather",
        "lat": 62.754334713827525,
        "lon": 24.865843340075603,
        "alt_km": 470.7575682096822,
        "timestamp": "2025-12-16T03:53:26.701585+00:00",
        "meta_object_name": "TIANMU-1 09",
        "meta_object_id": "2023-101C",
        "meta_epoch": "2025-12-15T07:10:59.151072",
        "meta_mean_motion": 15.2812625,
        "meta_eccentricity": 0.00067275,
        "meta_inclination": 97.2827,
        "meta_ra_of_asc_node": 38.4025,
        "meta_arg_of_pericenter": 76.8413,
        "meta_mean_anomaly": 283.3577,
        "meta_ephemeris_type": 0,
        "meta_classification_type": "U",
        "meta_norad_cat_id": 57401,
        "meta_element_set_no": 999,
        "meta_rev_at_epoch": 13354,
        "meta_bstar": 0.00022072396,
        "meta_mean_motion_dot": 5.983e-05,
        "meta_mean_motion_ddot": 0,
        "tle_line1": "1 57401U 23101C   25349.29929573  .00005983  00000+0  22072-3 0  9993",
        "tle_line2": "2 57401  97.2827  38.4025 0006727  76.8413 283.3577 15.28126250133540"
      },
      "geometry": {
        "type": "Point",
        "coordinates": [
          24.865843340075603,
          62.754334713827525
        ]
      }
    },
    {
      "type": "Feature",
      "properties": {
        "norad_id": 57402,
        "name": "TIANMU-1 10",
        "group": "weather",
        "lat": -54.99047172766597,
        "lon": -150.4322804560647,
        "alt_km": 494.02547751208294,
        "timestamp": "2025-12-16T03:53:26.701622+00:00",
        "meta_object_name": "TIANMU-1 10",
        "meta_object_id": "2023-101D",
        "meta_epoch": "2025-12-15T09:34:34.053600",
        "meta_mean_motion": 15.28118611,
        "meta_eccentricity": 0.00084493,
        "meta_inclination": 97.2906,
        "meta_ra_of_asc_node": 39.3525,
        "meta_arg_of_pericenter": 75.7514,
        "meta_mean_anomaly": 284.4663,
        "meta_ephemeris_type": 0,
        "meta_classification_type": "U",
        "meta_norad_cat_id": 57402,
        "meta_element_set_no": 999,
        "meta_rev_at_epoch": 13355,
        "meta_bstar": 0.00020728242,
        "meta_mean_motion_dot": 5.615e-05,
        "meta_mean_motion_ddot": 0,
        "tle_line1": "1 57402U 23101D   25349.39900525  .00005615  00000+0  20728-3 0  9999",
        "tle_line2": "2 57402  97.2906  39.3525 0008449  75.7514 284.4663 15.28118611133558"
      },
      "geometry": {
        "type": "Point",
        "coordinates": [
          -150.4322804560647,
          -54.99047172766597
        ]
      }
    },
    {
      "type": "Feature",
      "properties": {
        "norad_id": 57490,
        "name": "FENGYUN 3F",
        "group": "weather",
        "lat": -63.00370166653471,
        "lon": -139.10826099124677,
        "alt_km": 833.2451925607256,
        "timestamp": "2025-12-16T03:53:26.701649+00:00",
        "meta_object_name": "FENGYUN 3F",
        "meta_object_id": "2023-111A",
        "meta_epoch": "2025-12-15T08:08:25.089792",
        "meta_mean_motion": 14.19894246,
        "meta_eccentricity": 6.84e-05,
        "meta_inclination": 98.7081,
        "meta_ra_of_asc_node": 57.5906,
        "meta_arg_of_pericenter": 107.0859,
        "meta_mean_anomaly": 253.0392,
        "meta_ephemeris_type": 0,
        "meta_classification_type": "U",
        "meta_norad_cat_id": 57490,
        "meta_element_set_no": 999,
        "meta_rev_at_epoch": 12277,
        "meta_bstar": 5.6581737e-05,
        "meta_mean_motion_dot": 7.6e-07,
        "meta_mean_motion_ddot": 0,
        "tle_line1": "1 57490U 23111A   25349.33917928  .00000076  00000+0  56582-4 0  9990",
        "tle_line2": "2 57490  98.7081  57.5906 0000684 107.0859 253.0392 14.19894246122771"
      },
      "geometry": {
        "type": "Point",
        "coordinates": [
          -139.10826099124677,
          -63.00370166653471
        ]
      }
    },
    {
      "type": "Feature",
      "properties": {
        "norad_id": 58584,
        "name": "ARKTIKA-M 2",
        "group": "weather",
        "lat": 55.17409613469282,
        "lon": -52.05230073326351,
        "alt_km": 30772.590418786964,
        "timestamp": "2025-12-16T03:53:26.701670+00:00",
        "meta_object_name": "ARKTIKA-M 2",
        "meta_object_id": "2023-198A",
        "meta_epoch": "2025-12-15T07:41:54.278304",
        "meta_mean_motion": 2.00603484,
        "meta_eccentricity": 0.6865091,
        "meta_inclination": 63.2249,
        "meta_ra_of_asc_node": 174.6089,
        "meta_arg_of_pericenter": 268.096,
        "meta_mean_anomaly": 18.8351,
        "meta_ephemeris_type": 0,
        "meta_classification_type": "U",
        "meta_norad_cat_id": 58584,
        "meta_element_set_no": 999,
        "meta_rev_at_epoch": 1463,
        "meta_bstar": 0,
        "meta_mean_motion_dot": 2.02e-06,
        "meta_mean_motion_ddot": 0,
        "tle_line1": "1 58584U 23198A   25349.32076711  .00000202  00000+0  00000+0 0  9995",
        "tle_line2": "2 58584  63.2249 174.6089 6865091 268.0960  18.8351  2.00603484 14636"
      },
      "geometry": {
        "type": "Point",
        "coordinates": [
          -52.05230073326351,
          55.17409613469282
        ]
      }
    },
    {
      "type": "Feature",
      "properties": {
        "norad_id": 58645,
        "name": "TIANMU-1 11",
        "group": "weather",
        "lat": 11.740213239975656,
        "lon": 8.18621616187568,
        "alt_km": 491.93962912481857,
        "timestamp": "2025-12-16T03:53:26.701692+00:00",
        "meta_object_name": "TIANMU-1 11",
        "meta_object_id": "2023-205A",
        "meta_epoch": "2025-12-15T07:21:43.142112",
        "meta_mean_motion": 15.24633963,
        "meta_eccentricity": 0.00077461,
        "meta_inclination": 97.3608,
        "meta_ra_of_asc_node": 8.8852,
        "meta_arg_of_pericenter": 299.7877,
        "meta_mean_anomaly": 60.259,
        "meta_ephemeris_type": 0,
        "meta_classification_type": "U",
        "meta_norad_cat_id": 58645,
        "meta_element_set_no": 999,
        "meta_rev_at_epoch": 10948,
        "meta_bstar": 0.00018669724,
        "meta_mean_motion_dot": 4.54e-05,
        "meta_mean_motion_ddot": 0,
        "tle_line1": "1 58645U 23205A   25349.30674933  .00004540  00000+0  18670-3 0  9995",
        "tle_line2": "2 58645  97.3608   8.8852 0007746 299.7877  60.2590 15.24633963109483"
      },
      "geometry": {
        "type": "Point",
        "coordinates": [
          8.18621616187568,
          11.740213239975656
        ]
      }
    },
    {
      "type": "Feature",
      "properties": {
        "norad_id": 58646,
        "name": "TIANMU-1 12",
        "group": "weather",
        "lat": -42.25675082770327,
        "lon": -177.21373937055014,
        "alt_km": 496.54936603856004,
        "timestamp": "2025-12-16T03:53:26.701708+00:00",
        "meta_object_name": "TIANMU-1 12",
        "meta_object_id": "2023-205B",
        "meta_epoch": "2025-12-15T08:00:48.432960",
        "meta_mean_motion": 15.24518163,
        "meta_eccentricity": 0.00057912,
        "meta_inclination": 97.3595,
        "meta_ra_of_asc_node": 8.7165,
        "meta_arg_of_pericenter": 279.5213,
        "meta_mean_anomaly": 80.537,
        "meta_ephemeris_type": 0,
        "meta_classification_type": "U",
        "meta_norad_cat_id": 58646,
        "meta_element_set_no": 999,
        "meta_rev_at_epoch": 10947,
        "meta_bstar": 0.00021370916,
        "meta_mean_motion_dot": 5.187e-05,
        "meta_mean_motion_ddot": 0,
        "tle_line1": "1 58646U 23205B   25349.33389390  .00005187  00000+0  21371-3 0  9999",
        "tle_line2": "2 58646  97.3595   8.7165 0005791 279.5213  80.5370 15.24518163109477"
      },
      "geometry": {
        "type": "Point",
        "coordinates": [
          -177.21373937055014,
          -42.25675082770327
        ]
      }
    }
  ]
}